satname,norad_id,inclination_deg,eccentricity,mean_motion_rev_per_day,perigee_km,apogee_km,l1,l2
STARLINK-1278,45408,53.0451,0.0003388,15.60234639,384.68671758399523,389.27076000860234,1 45408U 20019BA  26092.91668981  .00080292  00000+0  96309-3 0  9990,2 45408  53.0451  12.7235 0003388 139.6693 310.7116 15.60234639  5924
STARLINK-1296,45412,53.1612,0.0002518,15.32250792,467.37447086288466,470.8227387134566,1 45412U 20019BE  26092.52227744  .00074279  00000+0  23410-2 0  9990,2 45412  53.1612  18.4161 0002518 146.9921 213.1238 15.32250792333628
STARLINK-1309,45414,53.0664,0.000682,15.59594821,384.2137840505784,393.44392547647567,1 45414U 20019BG  26092.91668981  .00135809  00000+0  16523-2 0  9991,2 45414  53.0664   6.1566 0006820 125.1142  24.1683 15.59594821  5929
STARLINK-1316,45415,53.1602,0.0001692,15.32250935,467.9396265757532,470.2567309602473,1 45415U 20019BH  26092.50218848  .00078404  00000+0  24690-2 0  9991,2 45415  53.1602  18.5605 0001692 164.9184 195.1868 15.32250935333646
STARLINK-1286,45417,53.0502,0.000374,15.5277051,406.10297976292713,411.17948988257467,1 45417U 20019BK  26092.50072068  .00051403  00000+0  81879-3 0  9998,2 45417  53.0502  16.1555 0003740 123.8599 236.2767 15.52770510333928
STARLINK-1308,45419,53.0526,0.0006365,15.55082008,397.5987500891915,406.2297553338931,1 45419U 20019BM  26092.91668981  .00128683  00000+0  18552-2 0  9992,2 45419  53.0526  35.3715 0006365 115.8206  73.7203 15.55082008  5857
STARLINK-1329,45531,53.0461,3.56e-05,15.65714506,370.9443562429051,371.42490794311016,1 45531U 20025A   26092.64984295  .00069573  00000+0  67547-3 0  9994,2 45531  53.0461 324.4506 0000356 163.7126 196.3900 15.65714506329195
STARLINK-1338,45532,53.0479,0.0003637,15.58838518,388.5554927055209,393.4793756409381,1 45532U 20025B   26092.91668981  .00130003  00000+0  16301-2 0  9994,2 45532  53.0479 327.2802 0003637 109.4724 318.5501 15.58838518  5874
STARLINK-1350,45535,53.071,0.0001852,15.36746981,454.4707642251842,457.0020309316469,1 45535U 20025E   26092.79378766  .00018477  00000+0  51658-3 0  9997,2 45535  53.0710 279.8878 0001852 116.1895 243.9298 15.36746981329861
STARLINK-1362,45538,53.1621,0.0001099,15.30676259,473.04038746215974,474.5464417672929,1 45538U 20025H   26092.42772848 -.00161852  00000+0 -54900-2 0  9999,2 45538  53.1621 350.7069 0001099 106.0757 254.0365 15.30676259328811
STARLINK-1368,45540,53.1621,0.0001734,15.30175155,474.1008690024264,476.4776372270062,1 45540U 20025K   26092.44010760  .00010850  00000+0  37822-3 0  9996,2 45540  53.1621 351.0082 0001734 101.6431 258.4764 15.30175155328808
STARLINK-1371,45542,53.0497,0.0001403,15.51163987,412.37357698515916,414.2792616206152,1 45542U 20025M   26092.87757545  .00121989  00000+0  20295-2 0  9995,2 45542  53.0497 333.5215 0001403 154.1901 205.9177 15.51163987329080
STARLINK-1372,45543,53.1599,0.000138,15.30197599,474.2764748070176,476.16800195681117,1 45543U 20025N   26092.87407016  .00003625  00000+0  13445-3 0  9997,2 45543  53.1599 348.6908 0001380 102.7656 257.3499 15.30197599327978
STARLINK-1373,45544,53.0482,0.0003903,15.55142547,399.09210915798576,404.3844798128612,1 45544U 20025P   26092.91668981  .00106945  00000+0  15445-2 0  9993,2 45544  53.0482 332.2117 0003903 117.1368 358.3043 15.55142547  5917
STARLINK-1327,45555,53.0451,0.0005602,15.58271023,388.86780512097175,396.45380698287227,1 45555U 20025AA  26092.86298037  .00081591  00000+0  10536-2 0  9995,2 45555  53.0451 309.5235 0005602 154.9859 205.1425 15.58271023329417
STARLINK-1356,45564,53.0489,0.0004751,15.48605351,417.5748424959311,424.0351972031922,1 45564U 20025AK  26092.89795357  .00115206  00000+0  20994-2 0  9995,2 45564  53.0489 318.2741 0004751 135.7572 224.3815 15.48605351329296
STARLINK-1357,45565,53.0484,0.0004149,15.60779498,382.5980123562658,388.21039884867423,1 45565U 20025AL  26092.91668981  .00063477  00000+0  74844-3 0  9997,2 45565  53.0484 280.3429 0004149 230.3169 241.9611 15.60779498  5927
STARLINK-1361,45567,53.049,0.0006111,15.51847092,407.1842124300938,415.48230297905957,1 45567U 20025AN  26092.87348483  .00164586  00000+0  26538-2 0  9995,2 45567  53.0490 317.9103 0006111 118.5216 241.6409 15.51847092329302
STARLINK-1363,45568,53.0381,0.0003509,15.8333263,318.67302914512766,323.37450016976345,1 45568U 20025AP  26092.91668981  .00318694  00000+0  13904-2 0  9993,2 45568  53.0381 276.1658 0003509 156.0174 145.9861 15.83332630  5874
STARLINK-1366,45569,53.0385,0.0003782,15.81858322,322.65037893732097,327.7207721334562,1 45569U 20025AQ  26092.91668981  .00262468  00000+0  12353-2 0  9998,2 45569  53.0385 277.1494 0003782 152.0891 323.4139 15.81858322  5985
STARLINK-1376,45570,53.1599,0.0001543,15.32316615,467.84601621323145,469.9590126073781,1 45570U 20025AR  26092.87247951  .00076289  00000+0  23985-2 0  9992,2 45570  53.1599 325.3359 0001543 182.8232 177.2762 15.32316615329205
STARLINK-1320,45572,53.0435,0.000392,15.728066,348.2422337376611,353.5177830722496,1 45572U 20025AT  26092.79589508  .00109262  00000+0  78553-3 0  9992,2 45572  53.0435 226.4278 0003920 103.5734 256.5721 15.72806600330596
STARLINK-1321,45573,53.047,0.0003378,15.52655935,406.68242165773063,411.2677945979822,1 45573U 20025AU  26092.86658419  .00173430  00000+0  27141-2 0  9993,2 45573  53.0470 302.3935 0003378 170.7461 189.3611 15.52655935329219
STARLINK-1331,45578,53.0515,0.0005104,15.52410874,406.2248509209039,413.1538640666331,1 45578U 20025AZ  26092.91668981  .00113127  00000+0  18019-2 0  9990,2 45578  53.0515 308.8583 0005104 183.2384  47.1751 15.52410874  5797
STARLINK-1333,45580,53.1593,0.0001198,15.30201737,474.3888520987357,476.03091401191614,1 45580U 20025BB  26092.07605402  .00004248  00000+0  15546-3 0  9995,2 45580  53.1593 329.1829 0001198  90.1163 269.9975 15.30201737329081
STARLINK-1335,45581,53.1565,0.0001232,15.29344792,476.92510849610517,478.6144039208357,1 45581U 20025BC  26092.88272645  .00000467  00000+0  28530-4 0  9991,2 45581  53.1565 322.8067 0001232 115.4043 244.7085 15.29344792329239
STARLINK-1337,45582,53.052,0.000468,15.62948064,375.98414416527703,382.3089615707604,1 45582U 20025BD  26092.91668981  .00151647  00000+0  16184-2 0  9995,2 45582  53.0520 303.7165 0004680 193.7952 271.5678 15.62948064  5938
STARLINK-1347,45586,53.0435,0.0002245,15.59056277,388.867571066703,391.90663838972614,1 45586U 20025BH  26092.91668981  .00181037  00000+0  22350-2 0  9997,2 45586  53.0435 272.0722 0002245 177.3161 343.1142 15.59056277  5911
STARLINK-1364,45589,53.0484,0.0006604,15.53832129,401.0696657469698,410.0295590246078,1 45589U 20025BL  26092.91668981  .00115216  00000+0  17422-2 0  9990,2 45589  53.0484 306.6616 0006604 155.3353 263.7076 15.53832129  5708
STARLINK-1365,45590,53.052,0.0004597,15.48977109,416.5921618379607,422.84210893003274,1 45590U 20025BM  26091.98912202  .00101724  00000+0  18339-2 0  9993,2 45590  53.0520 342.2304 0004597 137.5531 222.5833 15.48977109328894
STARLINK-1443,45660,53.1382,0.0002869,15.27302071,481.91272855841817,485.8501547402366,1 45660U 20035D   26092.87945727  .00056651  00000+0  20872-2 0  9992,2 45660  53.1382 313.1751 0002869 154.2664 205.8478 15.27302071322457
STARLINK-1446,45663,53.0236,0.000206,15.43937384,433.0987459081862,435.90555323781064,1 45663U 20035G   26092.70572978  .00028605  00000+0  62586-3 0  9998,2 45663  53.0236 245.2083 0002060   9.7759 350.3285 15.43937384323386
STARLINK-1448,45665,53.0484,0.0006467,15.5742164,390.74207685411966,399.5026104892231,1 45665U 20035J   26092.91668981  .00163255  00000+0  21472-2 0  9992,2 45665  53.0484 295.6394 0006467 183.3245 358.4211 15.57421640  5801
STARLINK-1451,45668,53.0546,0.0001934,15.11342025,530.7698110040674,533.4426930939599,1 45668U 20035M   26092.89448763  .00039873  00000+0  23424-2 0  9993,2 45668  53.0546 316.6748 0001934 105.2693 254.8512 15.11342025322404
STARLINK-1452,45669,53.0277,0.0004329,15.48776527,417.36100417123635,423.24709443172196,1 45669U 20035N   26092.77874409  .00091428  00000+0  16629-2 0  9994,2 45669  53.0277 266.6216 0004329 137.4301 222.7042 15.48776527323090
STARLINK-1453,45670,53.0438,0.0001541,15.57855091,392.82234443328343,394.90947573017183,1 45670U 20035P   26092.91668981  .00229569  00000+0  29455-2 0  9998,2 45670  53.0438 256.1724 0001541 144.2785 113.0226 15.57855091  5912
STARLINK-1454,45671,53.0479,0.0006126,15.56055264,394.935113540304,403.23856819013145,1 45671U 20035Q   26092.91668981  .00153056  00000+0  21212-2 0  9999,2 45671  53.0479 295.9971 0006126 163.5812  62.9426 15.56055264  5852
STARLINK-1456,45673,53.0467,0.0003021,15.54119552,402.6640922069255,406.7622902924786,1 45673U 20035S   26092.91668981  .00146114  00000+0  21773-2 0  9990,2 45673  53.0467 289.7431 0003021 239.9588 225.5281 15.54119552  5802
STARLINK-1457,45674,53.0421,0.0002809,15.86519102,310.17145460986103,313.93000207564364,1 45674U 20035T   26092.91668981  .00381896  00000+0  14195-2 0  9999,2 45674  53.0421 260.4589 0002809 191.2180 131.0846 15.86519102  5992
STARLINK-1458,45675,53.0508,0.0005573,15.46421119,423.4129759053494,430.99821075987893,1 45675U 20035U   26092.87848432  .00143128  00000+0  28009-2 0  9999,2 45675  53.0508 300.3853 0005573 173.9761 186.1313 15.46421119322594
STARLINK-1460,45676,53.1617,0.0001323,15.30201452,474.3040361072681,476.1174319176871,1 45676U 20035V   26092.89613312  .00003096  00000+0  11660-3 0  9994,2 45676  53.1617 312.5127 0001323  91.9761 268.1391 15.30201452322422
STARLINK-1392,45677,53.1538,9.78e-05,15.29363567,477.0431435671535,478.3841479534649,1 45677U 20035W   26092.64058968  .00002806  00000+0  10950-3 0  9997,2 45677  53.1538 313.6463 0000978  84.8581 275.2531 15.29363567322425
STARLINK-1394,45679,53.0461,0.0004216,15.5416352,401.72566830792766,407.4448597209448,1 45679U 20035Y   26092.91668981  .00160024  00000+0  23756-2 0  9995,2 45679  53.0461 279.9663 0004216 247.3403 234.8005 15.54163520  5807
